[{"OBJECT_NAME":"STARLINK-5324","OBJECT_ID":"2023-021BB","EPOCH":"2026-03-09T12:32:12.843168","MEAN_MOTION":14.9832728,"ECCENTRICITY":0.00033628,"INCLINATION":70.0007,"RA_OF_ASC_NODE":144.8377,"ARG_OF_PERICENTER":269.4702,"MEAN_ANOMALY":90.6072,"EPHEMERIS_TYPE":0,"CLASSIFICATION_TYPE":"U","NORAD_CAT_ID":55677,"ELEMENT_SET_NO":999,"REV_AT_EPOCH":16975,"BSTAR":-4.7771848e-5,"MEAN_MOTION_DOT":-6.63e-6,"MEAN_MOTION_DDOT":0},{"OBJECT_NAME":"FREGAT DEB","OBJECT_ID":"2011-037CX","EPOCH":"2026-03-09T22:22:15.719232","MEAN_MOTION":12.70252639,"ECCENTRICITY":0.12472984,"INCLINATION":51.4233,"RA_OF_ASC_NODE":4.0605,"ARG_OF_PERICENTER":90.8093,"MEAN_ANOMALY":283.5512,"EPHEMERIS_TYPE":0,"CLASSIFICATION_TYPE":"U","NORAD_CAT_ID":45878,"ELEMENT_SET_NO":999,"REV_AT_EPOCH":24233,"BSTAR":0.0072133856,"MEAN_MOTION_DOT":0.00053661,"MEAN_MOTION_DDOT":0}]
